[{"OBJECT_NAME":"STARLINK-32619","OBJECT_ID":"2024-217T","EPOCH":"2026-03-09T16:01:55.228512","MEAN_MOTION":15.30194524,"ECCENTRICITY":0.00012083,"INCLINATION":53.1609,"RA_OF_ASC_NODE":194.3077,"ARG_OF_PERICENTER":70.3644,"MEAN_ANOMALY":289.7487,"EPHEMERIS_TYPE":0,"CLASSIFICATION_TYPE":"U","NORAD_CAT_ID":62074,"ELEMENT_SET_NO":999,"REV_AT_EPOCH":7341,"BSTAR":0.001152285,"MEAN_MOTION_DOT":0.00033918,"MEAN_MOTION_DDOT":0},{"OBJECT_NAME":"KUIPER-00252","OBJECT_ID":"2025-301AA","EPOCH":"2026-03-09T22:00:01.999584","MEAN_MOTION":15.32961042,"ECCENTRICITY":0.00108625,"INCLINATION":51.8682,"RA_OF_ASC_NODE":64.6463,"ARG_OF_PERICENTER":55.9089,"MEAN_ANOMALY":330.8749,"EPHEMERIS_TYPE":0,"CLASSIFICATION_TYPE":"U","NORAD_CAT_ID":67157,"ELEMENT_SET_NO":999,"REV_AT_EPOCH":542,"BSTAR":-0.017504489,"MEAN_MOTION_DOT":-0.00529484,"MEAN_MOTION_DDOT":0}]
